NORAD_CAT_ID,OBJECT_NAME,OBJECT_TYPE,EPOCH,MEAN_MOTION,ECCENTRICITY,INCLINATION,RA_OF_ASC_NODE,ARG_OF_PERICENTER,MEAN_ANOMALY,BSTAR,MEAN_MOTION_DOT,MEAN_MOTION_DDOT,TLE_LINE0,TLE_LINE1,TLE_LINE2,SEMIMAJOR_AXIS,PERIOD,APOGEE,PERIGEE,DECAYED
49421.0,STARLINK-3112,PAYLOAD,2022-11-17 04:51:19,15.08811413,0.0002156,53.218,254.2445,37.5724,322.5418,0.00012689,1.73e-05,0.0,0 STARLINK-3112,1 49421U 21104P   22321.20231150  .00001730  00000-0  12689-3 0  9992,2 49421  53.2180 254.2445 0002156  37.5724 322.5418 15.08811413 57266,6917.968000000003,95.439,541.3240000000002,538.341,0.0
49421.0,STARLINK-3112,PAYLOAD,2022-11-17 12:48:15,15.08827539,0.0002586,53.2179,252.7553,28.8287,331.2847,2.5892e-08,-2.88e-06,0.0,0 STARLINK-3112,1 49421U 21104P   22321.53350799 -.00000288  00000-0  25892-7 0  9991,2 49421  53.2179 252.7553 0002586  28.8287 331.2847 15.08827539 56236,6917.918000000002,95.438,541.572,537.995,0.0
49421.0,STARLINK-3112,PAYLOAD,2022-11-17 23:55:56,15.08834121,0.0002481,53.2176,250.6739,27.1011,333.011,6.6784e-05,7.74e-06,0.0,0 STARLINK-3112,1 49421U 21104P   22321.99718311  .00000774  00000-0  66784-4 0  9990,2 49421  53.2176 250.6739 0002481  27.1011 333.0110 15.08834121 57382,6917.898,95.438,541.48,538.047,0.0
49421.0,STARLINK-3112,PAYLOAD,2022-11-18 12:39:01,15.08841709,0.0002542,53.2175,248.2947,26.975,333.1374,4.5699e-05,4.39e-06,0.0,0 STARLINK-3112,1 49421U 21104P   22322.52710055  .00000439  00000-0  45699-4 0  9997,2 49421  53.2175 248.2947 0002542  26.9750 333.1374 15.08841709 56382,6917.875,95.437,541.499,537.982,0.0
49421.0,STARLINK-3112,PAYLOAD,2022-11-19 01:22:06,15.08838886,0.0002562,53.2175,245.9159,26.8798,333.2326,0.00020891,3.038e-05,0.0,0 STARLINK-3112,1 49421U 21104P   22323.05701674  .00003038  00000-0  20891-3 0  9997,2 49421  53.2175 245.9159 0002562  26.8798 333.2326 15.08838886 57543,6917.884,95.438,541.521,537.976,0.0
49421.0,STARLINK-3112,PAYLOAD,2022-11-19 04:32:52,15.08837362,0.0002589,53.2175,245.3203,27.0144,333.0983,0.00019283,2.782e-05,0.0,0 STARLINK-3112,1 49421U 21104P   22323.18949944  .00002782  00000-0  19283-3 0  9993,2 49421  53.2175 245.3203 0002589  27.0144 333.0983 15.08837362 56481,6917.888000000001,95.438,541.544,537.962,0.0
49421.0,STARLINK-3112,PAYLOAD,2022-11-19 18:51:20,15.08846067,0.0002638,53.2178,242.6454,28.5804,331.5333,0.0001383,1.914e-05,0.0,0 STARLINK-3112,1 49421U 21104P   22323.78565543  .00001914  00000-0  13830-3 0  9996,2 49421  53.2178 242.6454 0002638  28.5804 331.5333 15.08846067 56570,6917.861999999999,95.437,541.552,537.9019999999998,0.0
49421.0,STARLINK-3112,PAYLOAD,2022-11-20 01:12:53,15.08843696,0.0002616,53.2176,241.4547,29.3182,330.7956,0.00010654,1.408e-05,0.0,0 STARLINK-3112,1 49421U 21104P   22324.05061630  .00001408  00000-0  10654-3 0  9994,2 49421  53.2176 241.4547 0002616  29.3182 330.7956 15.08843696 56614,6917.869000000002,95.437,541.544,537.924,0.0
49421.0,STARLINK-3112,PAYLOAD,2022-11-20 18:42:07,15.08842642,0.0002651,53.2174,238.1836,29.8484,330.2659,3.4022e-05,2.53e-06,0.0,0 STARLINK-3112,1 49421U 21104P   22324.77925654  .00000253  00000-0  34022-4 0  9991,2 49421  53.2174 238.1836 0002651  29.8484 330.2659 15.08842642 57802,6917.871999999999,95.437,541.571,537.903,0.0
49421.0,STARLINK-3112,PAYLOAD,2022-11-21 04:14:26,15.08845891,0.0002694,53.2175,236.4001,28.8247,331.2893,6.123399999999999e-05,6.86e-06,0.0,0 STARLINK-3112,1 49421U 21104P   22325.17669271  .00000686  00000-0  61234-4 0  9991,2 49421  53.2175 236.4001 0002694  28.8247 331.2893 15.08845891 56787,6917.861999999999,95.437,541.591,537.864,0.0
49421.0,STARLINK-3112,PAYLOAD,2022-11-22 04:05:14,15.08833529,0.0002723999999999,53.2172,231.9401,27.5506,332.5630000000001,-3.5735e-05,-8.57e-06,0.0,0 STARLINK-3112,1 49421U 21104P   22326.17030221 -.00000857  00000-0 -35735-4 0  9998,2 49421  53.2172 231.9401 0002724  27.5506 332.5630 15.08833529 58012,6917.9,95.438,541.65,537.881,0.0
49421.0,STARLINK-3112,PAYLOAD,2022-11-22 10:26:46,15.08832282,0.0002745,53.2171,230.7506,27.5074,332.6063,-2.431e-05,-6.75e-06,0.0,0 STARLINK-3112,1 49421U 21104P   22326.43526365 -.00000675  00000-0 -24310-4 0  9991,2 49421  53.2171 230.7506 0002745  27.5074 332.6063 15.08832282 56976,6917.904,95.438,541.668,537.87,0.0
49421.0,STARLINK-3112,PAYLOAD,2022-11-23 02:20:37,15.08851692,0.0002656,53.2172,227.7771,25.4747,334.6375,-0.00024663,-4.213e-05,0.0,0 STARLINK-3112,1 49421U 21104P   22327.09765631 -.00004213  00000-0 -24663-3 0  9997,2 49421  53.2172 227.7771 0002656  25.4747 334.6375 15.08851692 58158,6917.845,95.437,541.547,537.872,0.0
49421.0,STARLINK-3112,PAYLOAD,2022-11-23 10:17:33,15.08839228,0.0002636,53.2173,226.2912,27.7323,332.3809,-4.2494e-05,-9.65e-06,0.0,0 STARLINK-3112,1 49421U 21104P   22327.42885967 -.00000965  00000-0 -42494-4 0  9992,2 49421  53.2173 226.2912 0002636  27.7323 332.3809 15.08839228 58207,6917.8830000000025,95.438,541.571,537.924,0.0
49421.0,STARLINK-3112,PAYLOAD,2022-11-24 02:11:25,15.0882625,0.0002696,53.2169,223.3177,24.2393,335.8726,7.6187e-06,-1.67e-06,0.0,0 STARLINK-3112,1 49421U 21104P   22328.09126914 -.00000167  00000-0  76187-5 0  9996,2 49421  53.2169 223.3177 0002696  24.2393 335.8726 15.08826250 58306,6917.922,95.438,541.6519999999998,537.922,0.0
49421.0,STARLINK-3112,PAYLOAD,2022-11-24 10:08:21,15.08828931,0.0002652,53.2168,221.8307,24.7423,335.3696,5.7178e-05,6.21e-06,0.0,0 STARLINK-3112,1 49421U 21104P   22328.42246854  .00000621  00000-0  57178-4 0  9991,2 49421  53.2168 221.8307 0002652  24.7423 335.3696 15.08828931 57278,6917.9140000000025,95.438,541.614,537.945,0.0
49421.0,STARLINK-3112,PAYLOAD,2022-11-24 19:40:39,15.08833686,0.0002663,53.2169,220.0456,26.1078,334.0048,6.2295e-05,7.03e-06,0.0,0 STARLINK-3112,1 49421U 21104P   22328.81990570  .00000703  00000-0  62295-4 0  9992,2 49421  53.2169 220.0456 0002663  26.1078 334.0048 15.08833686 58416,6917.9,95.438,541.607,537.922,0.0
49421.0,STARLINK-3112,PAYLOAD,2022-11-25 09:59:07,15.08843127,0.0002737,53.2169,217.3695,27.3807,332.7329,0.00011884,1.604e-05,0.0,0 STARLINK-3112,1 49421U 21104P   22329.41605895  .00001604  00000-0  11884-3 0  9990,2 49421  53.2169 217.3695 0002737  27.3807 332.7329 15.08843127 58503,6917.871,95.437,541.629,537.842,0.0
49421.0,STARLINK-3112,PAYLOAD,2022-11-25 19:31:25,15.08847711,0.0002716,53.2168,215.585,27.3891,332.7244,0.00016932,2.408e-05,0.0,0 STARLINK-3112,1 49421U 21104P   22329.81349391  .00002408  00000-0  16932-3 0  9992,2 49421  53.2168 215.5850 0002716  27.3891 332.7244 15.08847711 57480,6917.857,95.437,541.601,537.8430000000002,0.0
49421.0,STARLINK-3112,PAYLOAD,2022-11-26 09:49:54,15.08846594,0.0002779,53.2173,212.9088,28.6889,331.4256,0.00015201,2.132e-05,0.0,0 STARLINK-3112,1 49421U 21104P   22330.40965440  .00002132  00000-0  15201-3 0  9990,2 49421  53.2173 212.9088 0002779  28.6889 331.4256 15.08846594 57577,6917.86,95.437,541.648,537.803,0.0
49421.0,STARLINK-3112,PAYLOAD,2022-11-26 19:22:12,15.08853057,0.0002852,53.2174,211.125,29.5409,330.5744,0.00013492,1.86e-05,0.0,0 STARLINK-3112,1 49421U 21104P   22330.80708846  .00001860  00000-0  13492-3 0  9996,2 49421  53.2174 211.1250 0002852  29.5409 330.5744 15.08853057 57631,6917.84,95.437,541.678,537.7330000000002,0.0
49421.0,STARLINK-3112,PAYLOAD,2022-11-27 01:43:45,15.08849208,0.0002704,53.2171,209.9348,27.8674,332.2463,3.6015e-05,2.85e-06,0.0,0 STARLINK-3112,1 49421U 21104P   22331.07205153  .00000285  00000-0  36015-4 0  9996,2 49421  53.2171 209.9348 0002704  27.8674 332.2463 15.08849208 58756,6917.852,95.437,541.5880000000002,537.847,0.0
49421.0,STARLINK-3112,PAYLOAD,2022-11-27 17:37:37,15.088406699999998,0.0002782,53.217,206.9622,26.2167,333.8966,-0.00013963,-2.51e-05,0.0,0 STARLINK-3112,1 49421U 21104P   22331.73445950 -.00002510  00000-0 -13963-3 0  9991,2 49421  53.2170 206.9622 0002782  26.2167 333.8966 15.08840670 58853,6917.878000000002,95.438,541.668,537.819,0.0
49421.0,STARLINK-3112,PAYLOAD,2022-11-28 01:34:32,15.08838775,0.0002924,53.217,205.4755,30.4334,329.6827,-1.3415999999999997e-05,-5.02e-06,0.0,0 STARLINK-3112,1 49421U 21104P   22332.06565755 -.00000502  00000-0 -13416-4 0  9997,2 49421  53.2170 205.4755 0002924  30.4334 329.6827 15.08838775 57823,6917.884,95.438,541.7719999999998,537.726,0.0
49421.0,STARLINK-3112,PAYLOAD,2022-11-29 01:25:20,15.08808331,0.0003064,53.2167,201.0153,35.5082,324.6114,0.00024322,3.581e-05,0.0,0 STARLINK-3112,1 49421U 21104P   22333.05926762  .00003581  00000-0  24322-3 0  9991,2 49421  53.2167 201.0153 0003064  35.5082 324.6114 15.08808331 59051,6917.977,95.44,541.962,537.7230000000002,0.0
49421.0,STARLINK-3112,PAYLOAD,2022-11-29 07:46:52,15.08834312,0.0002895,53.2168,199.8256,32.3052,327.8117,-1.7117e-05,-5.61e-06,0.0,0 STARLINK-3112,1 49421U 21104P   22333.32422078 -.00000561  00000-0 -17117-4 0  9994,2 49421  53.2168 199.8256 0002895  32.3052 327.8117 15.08834312 59093,6917.898,95.438,541.766,537.76,0.0
49421.0,STARLINK-3112,PAYLOAD,2022-11-29 17:19:11,15.088350899999998,0.0002856999999999,53.2162,198.0409,29.7522,330.3632,3.1134000000000004e-05,2.07e-06,0.0,0 STARLINK-3112,1 49421U 21104P   22333.72166056  .00000207  00000-0  31134-4 0  9999,2 49421  53.2162 198.0409 0002857  29.7522 330.3632 15.08835090 58070,6917.895,95.438,541.737,537.784,0.0
49421.0,STARLINK-3112,PAYLOAD,2022-11-30 01:16:06,15.08838542,0.0002893,53.2162,196.5543,30.014,330.1017,5.6395e-05,6.09e-06,0.0,0 STARLINK-3112,1 49421U 21104P   22334.05285855  .00000609  00000-0  56395-4 0  9997,2 49421  53.2162 196.5543 0002893  30.0140 330.1017 15.08838542 59209,6917.885,95.438,541.751,537.749,0.0
49421.0,STARLINK-3112,PAYLOAD,2022-11-30 13:59:12,15.08838212,0.0003016,53.2166,194.1761,32.5969,327.5209,-0.00019299,-3.359e-05,0.0,0 STARLINK-3112,1 49421U 21104P   22334.58278819 -.00003359  00000-0 -19299-3 0  9995,2 49421  53.2166 194.1761 0003016  32.5969 327.5209 15.08838212 58209,6917.886,95.438,541.837,537.664,0.0
